ONEWEB-0086             
1 45456U 20020AJ  23288.84955045  .00000056  00000+0  12291-3 0  9999
2 45456  87.8995 214.8117 0002388  72.9371 287.2018 13.11421459174771
ONEWEB-0088             
1 45457U 20020AK  23288.52165067 -.00000526  00000+0 -15191-2 0  9997
2 45457  87.8991 214.8570 0002045  77.6931 282.4426 13.11417761174664
ONEWEB-0102             
1 47258U 20100A   23288.45114747 -.00000096  00000+0 -30098-3 0  9994
2 47258  87.9067 184.6889 0001588  63.4106 296.7185 13.12443590136742
ONEWEB-0109             
1 47259U 20100B   23288.46172982  .00000198  00000+0  51606-3 0  9990
2 47259  87.9002 184.6677 0001784  72.7898 287.3426 13.12445799136574
ONEWEB-0110             
1 47260U 20100C   23288.25632066  .00000464  00000+0  12535-2 0  9996
2 47260  87.9068 184.7092 0001696  65.6135 294.5170 13.12443744136717
ONEWEB-0111             
1 47261U 20100D   23288.44057376 -.00000405  00000+0 -11621-2 0  9995
2 47261  87.9062 184.6613 0001667  70.2473 289.8836 13.12441438136573
ONEWEB-0114             
1 47262U 20100E   23288.24361302  .00000606  00000+0  16481-2 0  9991
2 47262  87.9066 184.7220 0001161  70.1307 289.9947 13.12445195136508
ONEWEB-0117             
1 47263U 20100F   23288.61633800  .00000243  00000+0  64022-3 0  9990
2 47263  87.9001 184.6472 0001763  73.5535 286.5787 13.12442978136561
